IRIDIUM 112             
1 41925U 17003J   25298.78109138 -.00000131  00000+0 -53820-4 0  9993
2 41925  86.4032 186.2301 0002096  86.0036 274.1400 14.34216395459674
IRIDIUM 111             
1 41926U 17003K   25298.97771116  .00000381  00000+0  12889-3 0  9990
2 41926  86.4031 186.2134 0002167  81.9627 278.1814 14.34213880459687
IRIDIUM 113             
1 42803U 17039A   25298.88790740  .00000257  00000+0  84660-4 0  9997
2 42803  86.3969  60.0914 0002227  92.9916 267.1535 14.34218708437606
IRIDIUM 123             
1 42804U 17039B   25298.92938398  .00000335  00000+0  11271-3 0  9990
2 42804  86.3927  91.5706 0001932  81.7186 278.4229 14.34218395436376
IRIDIUM 120             
1 42805U 17039C   25298.88156410  .00000100  00000+0  28740-4 0  9993
2 42805  86.3960  59.9069 0001714  97.1165 263.0225 14.34217958437595
IRIDIUM 115             
1 42806U 17039D   25298.84966727  .00000517  00000+0  14770-3 0  9999
2 42806  86.4495  60.0163 0001712  81.5265 278.6130 14.43277268440461
IRIDIUM 118             
1 42807U 17039E   25298.96109891  .00000065  00000+0  15983-4 0  9990
2 42807  86.3925  91.5564 0002317  91.4409 268.7053 14.34217745436378
IRIDIUM 117             
1 42808U 17039F   25298.91035669  .00000179  00000+0  56959-4 0  9991
2 42808  86.3925  91.5373 0002074  84.3033 275.8399 14.34218495436398
